{
  "type": "FeatureCollection",
  "features": [
    {
      "type": "Feature",
      "properties": {
        "OBJECT_NAME": "OSCAR 24",
        "OBJECT_ID": "1985-066B",
        "EPOCH": "2025-11-30T02:11:22.653888",
        "MEAN_MOTION": 13.35932879,
        "ECCENTRICITY": 0.0170316,
        "INCLINATION": 90.1784,
        "RA_OF_ASC_NODE": 92.0818,
        "ARG_OF_PERICENTER": 125.6527,
        "MEAN_ANOMALY": 46.59,
        "EPHEMERIS_TYPE": 0,
        "CLASSIFICATION_TYPE": "U",
        "NORAD_CAT_ID": 15936,
        "ELEMENT_SET_NO": 999,
        "REV_AT_EPOCH": 96474,
        "BSTAR": 0.00015866,
        "MEAN_MOTION_DOT": 9.8e-07,
        "MEAN_MOTION_DDOT": 0,
        "norad_id": 15936,
        "name": "OSCAR 24",
        "group": "nnss",
        "longitude_deg": NaN,
        "latitude_deg": NaN,
        "alt_km": NaN,
        "orbit_class": "HEO",
        "timestamp": "2025-11-30T08:43:09.389952+00:00"
      },
      "geometry": {
        "type": "Point",
        "coordinates": [
          NaN,
          NaN
        ]
      }
    },
    {
      "type": "Feature",
      "properties": {
        "OBJECT_NAME": "POLAR BEAR",
        "OBJECT_ID": "1986-088A",
        "EPOCH": "2025-11-30T02:39:08.639424",
        "MEAN_MOTION": 13.7524693,
        "ECCENTRICITY": 0.0039982,
        "INCLINATION": 89.6183,
        "RA_OF_ASC_NODE": 184.2785,
        "ARG_OF_PERICENTER": 156.1356,
        "MEAN_ANOMALY": 319.8481,
        "EPHEMERIS_TYPE": 0,
        "CLASSIFICATION_TYPE": "U",
        "NORAD_CAT_ID": 17070,
        "ELEMENT_SET_NO": 999,
        "REV_AT_EPOCH": 95805,
        "BSTAR": 0.00011795,
        "MEAN_MOTION_DOT": 1.25e-06,
        "MEAN_MOTION_DDOT": 0,
        "norad_id": 17070,
        "name": "POLAR BEAR",
        "group": "nnss",
        "longitude_deg": NaN,
        "latitude_deg": NaN,
        "alt_km": NaN,
        "orbit_class": "HEO",
        "timestamp": "2025-11-30T08:43:09.389964+00:00"
      },
      "geometry": {
        "type": "Point",
        "coordinates": [
          NaN,
          NaN
        ]
      }
    },
    {
      "type": "Feature",
      "properties": {
        "OBJECT_NAME": "OSCAR 27",
        "OBJECT_ID": "1987-080A",
        "EPOCH": "2025-11-30T01:06:15.022944",
        "MEAN_MOTION": 13.44902618,
        "ECCENTRICITY": 0.0102182,
        "INCLINATION": 90.3741,
        "RA_OF_ASC_NODE": 78.7974,
        "ARG_OF_PERICENTER": 260.6638,
        "MEAN_ANOMALY": 98.2944,
        "EPHEMERIS_TYPE": 0,
        "CLASSIFICATION_TYPE": "U",
        "NORAD_CAT_ID": 18361,
        "ELEMENT_SET_NO": 999,
        "REV_AT_EPOCH": 87386,
        "BSTAR": 0.00019438,
        "MEAN_MOTION_DOT": 1.25e-06,
        "MEAN_MOTION_DDOT": 0,
        "norad_id": 18361,
        "name": "OSCAR 27",
        "group": "nnss",
        "longitude_deg": NaN,
        "latitude_deg": NaN,
        "alt_km": NaN,
        "orbit_class": "HEO",
        "timestamp": "2025-11-30T08:43:09.389971+00:00"
      },
      "geometry": {
        "type": "Point",
        "coordinates": [
          NaN,
          NaN
        ]
      }
    },
    {
      "type": "Feature",
      "properties": {
        "OBJECT_NAME": "OSCAR 29",
        "OBJECT_ID": "1987-080B",
        "EPOCH": "2025-11-29T20:09:04.769856",
        "MEAN_MOTION": 13.44444811,
        "ECCENTRICITY": 0.010363,
        "INCLINATION": 90.3754,
        "RA_OF_ASC_NODE": 79.2475,
        "ARG_OF_PERICENTER": 284.7189,
        "MEAN_ANOMALY": 189.1031,
        "EPHEMERIS_TYPE": 0,
        "CLASSIFICATION_TYPE": "U",
        "NORAD_CAT_ID": 18362,
        "ELEMENT_SET_NO": 999,
        "REV_AT_EPOCH": 87336,
        "BSTAR": 0.00016075,
        "MEAN_MOTION_DOT": 1.04e-06,
        "MEAN_MOTION_DDOT": 0,
        "norad_id": 18362,
        "name": "OSCAR 29",
        "group": "nnss",
        "longitude_deg": NaN,
        "latitude_deg": NaN,
        "alt_km": NaN,
        "orbit_class": "HEO",
        "timestamp": "2025-11-30T08:43:09.389979+00:00"
      },
      "geometry": {
        "type": "Point",
        "coordinates": [
          NaN,
          NaN
        ]
      }
    },
    {
      "type": "Feature",
      "properties": {
        "OBJECT_NAME": "OSCAR 23",
        "OBJECT_ID": "1988-033A",
        "EPOCH": "2025-11-30T02:00:22.799808",
        "MEAN_MOTION": 13.27784281,
        "ECCENTRICITY": 0.0188504,
        "INCLINATION": 90.3227,
        "RA_OF_ASC_NODE": 15.9995,
        "ARG_OF_PERICENTER": 215.1837,
        "MEAN_ANOMALY": 172.1513,
        "EPHEMERIS_TYPE": 0,
        "CLASSIFICATION_TYPE": "U",
        "NORAD_CAT_ID": 19070,
        "ELEMENT_SET_NO": 999,
        "REV_AT_EPOCH": 82085,
        "BSTAR": 0.00016373,
        "MEAN_MOTION_DOT": 8.9e-07,
        "MEAN_MOTION_DDOT": 0,
        "norad_id": 19070,
        "name": "OSCAR 23",
        "group": "nnss",
        "longitude_deg": NaN,
        "latitude_deg": NaN,
        "alt_km": NaN,
        "orbit_class": "HEO",
        "timestamp": "2025-11-30T08:43:09.389987+00:00"
      },
      "geometry": {
        "type": "Point",
        "coordinates": [
          NaN,
          NaN
        ]
      }
    },
    {
      "type": "Feature",
      "properties": {
        "OBJECT_NAME": "OSCAR 32",
        "OBJECT_ID": "1988-033B",
        "EPOCH": "2025-11-30T03:12:26.959968",
        "MEAN_MOTION": 13.2795135,
        "ECCENTRICITY": 0.0187314,
        "INCLINATION": 90.3232,
        "RA_OF_ASC_NODE": 16.1324,
        "ARG_OF_PERICENTER": 201.8607,
        "MEAN_ANOMALY": 167.31,
        "EPHEMERIS_TYPE": 0,
        "CLASSIFICATION_TYPE": "U",
        "NORAD_CAT_ID": 19071,
        "ELEMENT_SET_NO": 999,
        "REV_AT_EPOCH": 82098,
        "BSTAR": 0.00013229,
        "MEAN_MOTION_DOT": 7.4e-07,
        "MEAN_MOTION_DDOT": 0,
        "norad_id": 19071,
        "name": "OSCAR 32",
        "group": "nnss",
        "longitude_deg": NaN,
        "latitude_deg": NaN,
        "alt_km": NaN,
        "orbit_class": "HEO",
        "timestamp": "2025-11-30T08:43:09.389994+00:00"
      },
      "geometry": {
        "type": "Point",
        "coordinates": [
          NaN,
          NaN
        ]
      }
    },
    {
      "type": "Feature",
      "properties": {
        "OBJECT_NAME": "NOVA 2",
        "OBJECT_ID": "1988-052A",
        "EPOCH": "2025-11-30T01:54:02.105856",
        "MEAN_MOTION": 13.22933594,
        "ECCENTRICITY": 0.0031577,
        "INCLINATION": 89.9871,
        "RA_OF_ASC_NODE": 78.2879,
        "ARG_OF_PERICENTER": 50.9406,
        "MEAN_ANOMALY": 123.6647,
        "EPHEMERIS_TYPE": 0,
        "CLASSIFICATION_TYPE": "U",
        "NORAD_CAT_ID": 19223,
        "ELEMENT_SET_NO": 999,
        "REV_AT_EPOCH": 80780,
        "BSTAR": 3.4211e-05,
        "MEAN_MOTION_DOT": 2.3e-07,
        "MEAN_MOTION_DDOT": 0,
        "norad_id": 19223,
        "name": "NOVA 2",
        "group": "nnss",
        "longitude_deg": NaN,
        "latitude_deg": NaN,
        "alt_km": NaN,
        "orbit_class": "HEO",
        "timestamp": "2025-11-30T08:43:09.390003+00:00"
      },
      "geometry": {
        "type": "Point",
        "coordinates": [
          NaN,
          NaN
        ]
      }
    },
    {
      "type": "Feature",
      "properties": {
        "OBJECT_NAME": "OSCAR 25",
        "OBJECT_ID": "1988-074A",
        "EPOCH": "2025-11-30T03:22:36.328800",
        "MEAN_MOTION": 13.42619633,
        "ECCENTRICITY": 0.0094186,
        "INCLINATION": 90.036,
        "RA_OF_ASC_NODE": 20.202,
        "ARG_OF_PERICENTER": 282.4543,
        "MEAN_ANOMALY": 89.4083,
        "EPHEMERIS_TYPE": 0,
        "CLASSIFICATION_TYPE": "U",
        "NORAD_CAT_ID": 19419,
        "ELEMENT_SET_NO": 999,
        "REV_AT_EPOCH": 82471,
        "BSTAR": 0.00019519,
        "MEAN_MOTION_DOT": 1.22e-06,
        "MEAN_MOTION_DDOT": 0,
        "norad_id": 19419,
        "name": "OSCAR 25",
        "group": "nnss",
        "longitude_deg": NaN,
        "latitude_deg": NaN,
        "alt_km": NaN,
        "orbit_class": "HEO",
        "timestamp": "2025-11-30T08:43:09.390010+00:00"
      },
      "geometry": {
        "type": "Point",
        "coordinates": [
          NaN,
          NaN
        ]
      }
    },
    {
      "type": "Feature",
      "properties": {
        "OBJECT_NAME": "OSCAR 31",
        "OBJECT_ID": "1988-074B",
        "EPOCH": "2025-11-30T02:14:03.488352",
        "MEAN_MOTION": 13.42581412,
        "ECCENTRICITY": 0.0092402,
        "INCLINATION": 90.0377,
        "RA_OF_ASC_NODE": 20.5498,
        "ARG_OF_PERICENTER": 276.7019,
        "MEAN_ANOMALY": 110.7324,
        "EPHEMERIS_TYPE": 0,
        "CLASSIFICATION_TYPE": "U",
        "NORAD_CAT_ID": 19420,
        "ELEMENT_SET_NO": 999,
        "REV_AT_EPOCH": 82481,
        "BSTAR": 0.00014004,
        "MEAN_MOTION_DOT": 8.9e-07,
        "MEAN_MOTION_DDOT": 0,
        "norad_id": 19420,
        "name": "OSCAR 31",
        "group": "nnss",
        "longitude_deg": NaN,
        "latitude_deg": NaN,
        "alt_km": NaN,
        "orbit_class": "HEO",
        "timestamp": "2025-11-30T08:43:09.390019+00:00"
      },
      "geometry": {
        "type": "Point",
        "coordinates": [
          NaN,
          NaN
        ]
      }
    }
  ]
}